Name,State,County,Comments,Latitude,Longitude
Sidney,NE,cheyenne,,41.139444,-102.978333
Hemingford,NE,box butte,,42.32,-103.073611
Brookings,SD,brookings,,44.306389,-96.788056
Pierre,SD,hughes,,44.368056,-100.336389
Winner,SD,tripp,,43.373889,-99.857778
Hettinger,ND,adams,,46.000833,-102.633333
Waseca,MN,,,,
Rosemount,MN,,,,
SidneyMT,MT,,,,
Mocassin,MT,,,,
Bozeman,MT,,,,
Lethbridge,AB,,,,
Loma,MT,,,,
Saskatoon,SK,,,,
Ames,IA,,,,
Lincoln,NE,lancaster,,40.810556,-96.680278
North Platte,NE,lincoln,,41.135833,-100.770556
Archer,WY,,,,
Lind,WA,,,,
Clovis (Irr),NM,,,,
Clovis (Dry),NM,,,,
Farmington,NM,,,,
Bushland (Irr),TX,potter,,35.191944,-102.064722
Bushland (Dry),TX,potter,,35.191944,-102.064722
Chillicothe,TX,hardeman,,34.255278,-99.512222
Prosper,TX,colin,,33.238333,-96.790833
Stillwater,OK,payne,,36.121538,-97.068537
Lahoma,OK,garfield,,36.388056,-98.088889
Goodwell (Irr),OK,texas,,36.593333,-101.629722
Hutchinson,KS,reno,,38.060833,-97.929722
Hays,KS,ellis,,38.879444,-99.322222
Manhattan,KS,riley,,39.191667,-96.591667
Colby,KS,thomas,,40.522222,-98.055
Garden City,KS,finney,,37.975278,-100.864167
Wichita,KS,sedgwick,,37.688889,-97.336111
Winfield,KS,cowley,,37.239722,-96.995556
Hugoton (Irr),KS,stevens,,37.176389,-101.345556
Fort Collins,CO,,,,
Akron,CO,,,,
Burlington,CO,,,,
Imperial (Irr),NE,chase,,40.518333,-101.6425
Columbia,MO,,,,
Crawfordsville,IA,,,,
Altus,OK,jackson,,34.643889,-99.326667
Goodwell,OK,texas,,36.593333,-101.629722
WichitaI,KS,sedgwick,,37.688889,-97.336111
WichitaII,KS,sedgwick,,37.688889,-97.336111
Salinas,KS,saline,,38.840278,-97.611389
Julesburg,CO,,,,
Walsh,CO,,,,
Clay Center,NE,clay,,40.522222,-98.055
Alliance,NE,box butte,,42.101389,-102.870278
Dakota Lakes,SD,hughes,,44.368056,-100.336389
Williston,ND,williams,,48.156389,-103.628056
Billings,MT,,,,
Grant,NE,perkins,,40.844444,-101.726111
McGregor,TX,coryell,,31.431944,-97.416944
Beeville,TX,bee,,28.405556,-97.750833
Imperial,NE,chase,,40.518333,-101.6425
Casselton,ND,cass,,46.9,-97.210556
Belfield,ND,stark,,46.886111,-103.198611
Granite,OK,greer,,34.9625,-99.381389
Hildreth,NE,franklin,,40.336389,-99.044167
Minot,ND,ward,,48.233056,-101.292222
Clarkton,MO,,,,
Presho,SD,lyman,,43.905833,-100.058056
Dallas,TX,dallas,,32.775833,-96.796667
Lafeyette,ID,,,,
Wooster,OH,,,,
Palmer,KS,washington,,39.632778,-97.14
Ft Cobb,OK,caddo,,35.099444,-98.438611
Flora,IL,,,,
Goodland,KS,sherman,,39.348611,-101.711111
Pine Bluff,WY,,,,
Pullman,WA,,,,
Hobbart,OK,kiowa,,35.026389,-99.090833
Larned,KS,pawnee,,38.182222,-99.101667
,,,,,
,,,,,